RISAT-2BR2              
1 46905U 20081A   26068.52426450  .00004901  00000+0  37609-3 0  9996
2 46905  36.8980  95.9121 0010905  52.9142 307.2595 15.01602463292489
STARLINK-6356           
1 57363U 23099AM  26068.48352710 -.00001262  00000+0 -78359-4 0  9997
2 57363  43.0028 237.2287 0001305 267.0897  92.9796 15.02535412146238
